{
  "type": "FeatureCollection",
  "features": [
    {
      "type": "Feature",
      "properties": {
        "norad_id": 36258,
        "name": "FENGYUN 1C DEB",
        "group": "fengyun-1c-debris",
        "lat": -65.08777961310837,
        "lon": 50.070223458652706,
        "alt_km": 762.3013745561211,
        "timestamp": "2025-12-24T22:42:22.319952+00:00",
        "meta_object_name": "FENGYUN 1C DEB",
        "meta_object_id": "1999-025DWK",
        "meta_epoch": "2025-12-23T19:20:03.344928",
        "meta_mean_motion": 14.74902251,
        "meta_eccentricity": 0.01735636,
        "meta_inclination": 99.0861,
        "meta_ra_of_asc_node": 28.6354,
        "meta_arg_of_pericenter": 91.4146,
        "meta_mean_anomaly": 270.6949,
        "meta_ephemeris_type": 0,
        "meta_classification_type": "U",
        "meta_norad_cat_id": 36258,
        "meta_element_set_no": 999,
        "meta_rev_at_epoch": 90985,
        "meta_bstar": 0.00029871875,
        "meta_mean_motion_dot": 2.485e-05,
        "meta_mean_motion_ddot": 0,
        "tle_line1": "1 36258U 99025DWK 25357.80559427  .00002485  00000+0  29872-3 0  9990",
        "tle_line2": "2 36258  99.0861  28.6354 0173563  91.4146 270.6949 14.74902251909850"
      },
      "geometry": {
        "type": "Point",
        "coordinates": [
          50.070223458652706,
          -65.08777961310837
        ]
      }
    },
    {
      "type": "Feature",
      "properties": {
        "norad_id": 36260,
        "name": "FENGYUN 1C DEB",
        "group": "fengyun-1c-debris",
        "lat": -5.696998434230465,
        "lon": 1.645895338954467,
        "alt_km": 853.3009444002182,
        "timestamp": "2025-12-24T22:42:22.319962+00:00",
        "meta_object_name": "FENGYUN 1C DEB",
        "meta_object_id": "1999-025DWM",
        "meta_epoch": "2025-12-23T11:06:16.441920",
        "meta_mean_motion": 14.15380379,
        "meta_eccentricity": 0.00153222,
        "meta_inclination": 98.6614,
        "meta_ra_of_asc_node": 359.3339,
        "meta_arg_of_pericenter": 217.0014,
        "meta_mean_anomaly": 143.0104,
        "meta_ephemeris_type": 0,
        "meta_classification_type": "U",
        "meta_norad_cat_id": 36260,
        "meta_element_set_no": 999,
        "meta_rev_at_epoch": 87960,
        "meta_bstar": 0.00016677334,
        "meta_mean_motion_dot": 2.83e-06,
        "meta_mean_motion_ddot": 0,
        "tle_line1": "1 36260U 99025DWM 25357.46269030  .00000283  00000+0  16677-3 0  9996",
        "tle_line2": "2 36260  98.6614 359.3339 0015322 217.0014 143.0104 14.15380379879600"
      },
      "geometry": {
        "type": "Point",
        "coordinates": [
          1.645895338954467,
          -5.696998434230465
        ]
      }
    },
    {
      "type": "Feature",
      "properties": {
        "norad_id": 36261,
        "name": "FENGYUN 1C DEB",
        "group": "fengyun-1c-debris",
        "lat": -70.26162493850579,
        "lon": -73.13935409663216,
        "alt_km": 1224.4542163975793,
        "timestamp": "2025-12-24T22:42:22.319972+00:00",
        "meta_object_name": "FENGYUN 1C DEB",
        "meta_object_id": "1999-025DWN",
        "meta_epoch": "2025-12-21T21:54:08.945856",
        "meta_mean_motion": 13.45489066,
        "meta_eccentricity": 0.0355784,
        "meta_inclination": 101.3653,
        "meta_ra_of_asc_node": 249.3329,
        "meta_arg_of_pericenter": 53.9734,
        "meta_mean_anomaly": 309.3818,
        "meta_ephemeris_type": 0,
        "meta_classification_type": "U",
        "meta_norad_cat_id": 36261,
        "meta_element_set_no": 999,
        "meta_rev_at_epoch": 84556,
        "meta_bstar": 0.0006096013,
        "meta_mean_motion_dot": 4.76e-06,
        "meta_mean_motion_ddot": 0,
        "tle_line1": "1 36261U 99025DWN 25355.91260354  .00000476  00000+0  60960-3 0  9993",
        "tle_line2": "2 36261 101.3653 249.3329 0355784  53.9734 309.3818 13.45489066845560"
      },
      "geometry": {
        "type": "Point",
        "coordinates": [
          -73.13935409663216,
          -70.26162493850579
        ]
      }
    },
    {
      "type": "Feature",
      "properties": {
        "norad_id": 36262,
        "name": "FENGYUN 1C DEB",
        "group": "fengyun-1c-debris",
        "lat": -24.49368849688245,
        "lon": -116.11259993563229,
        "alt_km": 808.4449968832296,
        "timestamp": "2025-12-24T22:42:22.319982+00:00",
        "meta_object_name": "FENGYUN 1C DEB",
        "meta_object_id": "1999-025DWP",
        "meta_epoch": "2025-12-20T09:30:11.047680",
        "meta_mean_motion": 14.27815477,
        "meta_eccentricity": 0.00597653,
        "meta_inclination": 98.9612,
        "meta_ra_of_asc_node": 235.0995,
        "meta_arg_of_pericenter": 252.8725,
        "meta_mean_anomaly": 106.5905,
        "meta_ephemeris_type": 0,
        "meta_classification_type": "U",
        "meta_norad_cat_id": 36262,
        "meta_element_set_no": 999,
        "meta_rev_at_epoch": 89606,
        "meta_bstar": 0.00020370681,
        "meta_mean_motion_dot": 4.66e-06,
        "meta_mean_motion_ddot": 0,
        "tle_line1": "1 36262U 99025DWP 25354.39596120  .00000466  00000+0  20371-3 0  9999",
        "tle_line2": "2 36262  98.9612 235.0995 0059765 252.8725 106.5905 14.27815477896063"
      },
      "geometry": {
        "type": "Point",
        "coordinates": [
          -116.11259993563229,
          -24.49368849688245
        ]
      }
    },
    {
      "type": "Feature",
      "properties": {
        "norad_id": 36263,
        "name": "FENGYUN 1C DEB",
        "group": "fengyun-1c-debris",
        "lat": -30.601155564124294,
        "lon": 55.35508602999999,
        "alt_km": 721.0938360866649,
        "timestamp": "2025-12-24T22:42:22.319992+00:00",
        "meta_object_name": "FENGYUN 1C DEB",
        "meta_object_id": "1999-025DWQ",
        "meta_epoch": "2025-12-23T02:32:47.573952",
        "meta_mean_motion": 14.45760949,
        "meta_eccentricity": 0.00356896,
        "meta_inclination": 98.999,
        "meta_ra_of_asc_node": 238.7825,
        "meta_arg_of_pericenter": 233.3713,
        "meta_mean_anomaly": 126.4193,
        "meta_ephemeris_type": 0,
        "meta_classification_type": "U",
        "meta_norad_cat_id": 36263,
        "meta_element_set_no": 999,
        "meta_rev_at_epoch": 88135,
        "meta_bstar": 0.0018442181,
        "meta_mean_motion_dot": 6.544e-05,
        "meta_mean_motion_ddot": 0,
        "tle_line1": "1 36263U 99025DWQ 25357.10610618  .00006544  00000+0  18442-2 0  9999",
        "tle_line2": "2 36263  98.9990 238.7825 0035689 233.3713 126.4193 14.45760949881354"
      },
      "geometry": {
        "type": "Point",
        "coordinates": [
          55.35508602999999,
          -30.601155564124294
        ]
      }
    },
    {
      "type": "Feature",
      "properties": {
        "norad_id": 36267,
        "name": "FENGYUN 1C DEB",
        "group": "fengyun-1c-debris",
        "lat": -80.04345460607308,
        "lon": 66.64887050202833,
        "alt_km": 867.2161773362668,
        "timestamp": "2025-12-24T22:42:22.320003+00:00",
        "meta_object_name": "FENGYUN 1C DEB",
        "meta_object_id": "1999-025DWU",
        "meta_epoch": "2025-12-17T02:18:42.156000",
        "meta_mean_motion": 14.09111328,
        "meta_eccentricity": 0.0126413,
        "meta_inclination": 98.559,
        "meta_ra_of_asc_node": 298.2704,
        "meta_arg_of_pericenter": 197.9977,
        "meta_mean_anomaly": 227.0895,
        "meta_ephemeris_type": 0,
        "meta_classification_type": "U",
        "meta_norad_cat_id": 36267,
        "meta_element_set_no": 999,
        "meta_rev_at_epoch": 86591,
        "meta_bstar": 0.00083999853,
        "meta_mean_motion_dot": 1.528e-05,
        "meta_mean_motion_ddot": 0,
        "tle_line1": "1 36267U 99025DWU 25351.09632125  .00001528  00000+0  84000-3 0  9993",
        "tle_line2": "2 36267  98.5590 298.2704 0126413 197.9977 227.0895 14.09111328865912"
      },
      "geometry": {
        "type": "Point",
        "coordinates": [
          66.64887050202833,
          -80.04345460607308
        ]
      }
    },
    {
      "type": "Feature",
      "properties": {
        "norad_id": 36269,
        "name": "FENGYUN 1C DEB",
        "group": "fengyun-1c-debris",
        "lat": 78.67878742295997,
        "lon": -111.83424689524665,
        "alt_km": 952.1866440388221,
        "timestamp": "2025-12-24T22:42:22.320013+00:00",
        "meta_object_name": "FENGYUN 1C DEB",
        "meta_object_id": "1999-025DWW",
        "meta_epoch": "2025-12-14T01:28:51.707712",
        "meta_mean_motion": 14.27043075,
        "meta_eccentricity": 0.02331074,
        "meta_inclination": 99.1079,
        "meta_ra_of_asc_node": 290.0784,
        "meta_arg_of_pericenter": 275.9651,
        "meta_mean_anomaly": 81.5008,
        "meta_ephemeris_type": 0,
        "meta_classification_type": "U",
        "meta_norad_cat_id": 36269,
        "meta_element_set_no": 999,
        "meta_rev_at_epoch": 87735,
        "meta_bstar": 0.00079666975,
        "meta_mean_motion_dot": 2.532e-05,
        "meta_mean_motion_ddot": 0,
        "tle_line1": "1 36269U 99025DWW 25348.06170958  .00002532  00000+0  79667-3 0  9998",
        "tle_line2": "2 36269  99.1079 290.0784 0233107 275.9651  81.5008 14.27043075877359"
      },
      "geometry": {
        "type": "Point",
        "coordinates": [
          -111.83424689524665,
          78.67878742295997
        ]
      }
    }
  ]
}